      2.10          N: GNSS NAV DATA                        RINEX VERSION / TYPE
fic2rin                                 07/21/2019 00:19:33 PGM / RUN BY / DATE
                                                            END OF HEADER
15 19  7 20 14  0  0.0-2.996674738824e-04 2.501110429876e-12 0.000000000000e+00
    5.500000000000e+01 1.225000000000e+01 5.178072830375e-09 1.257957673866e+00
    7.655471563339e-07 1.146442175377e-02 9.644776582718e-06 5.153728250504e+03
    5.688000000000e+05-1.303851604462e-07-1.866094371052e+00 8.195638656616e-08
    9.277562065528e-01 1.789375000000e+02 7.884064964323e-01-8.431065473433e-09
    3.600149960697e-10 1.000000000000e+00 2.062000000000e+03 0.000000000000e+00
    2.400000000000e+00 0.000000000000e+00-1.071020960808e-08 5.500000000000e+01
    5.616000000000e+05 4.000000000000e+00
21 19  7 20 14  0  0.0-1.512467861176e-04 6.934897101019e-12 0.000000000000e+00
    5.600000000000e+01-1.981250000000e+01 4.878774649119e-09-1.889444218639e+00
   -6.612390279770e-07 2.451188373379e-02 2.050772309303e-06 5.153698282242e+03
    5.688000000000e+05 2.328306436539e-07 2.359169224388e+00 5.606561899185e-07
    9.491700225013e-01 3.312812500000e+02-1.427963165883e+00-8.266772915703e-09
   -1.825076021742e-10 1.000000000000e+00 2.062000000000e+03 0.000000000000e+00
    2.400000000000e+00 0.000000000000e+00-1.024454832077e-08 5.600000000000e+01
    5.616000000000e+05 4.000000000000e+00
12 19  7 20 14  0  0.0 2.220836468041e-04-3.637978807092e-12 0.000000000000e+00
    4.500000000000e+01 2.490625000000e+01 4.004095358072e-09-1.393890507672e+00
    1.491978764534e-06 7.540059974417e-03 1.057423651218e-05 5.153612577438e+03
    5.688000000000e+05 1.378357410431e-07 3.920521720095e-01 8.754432201385e-08
    9.825096753688e-01 1.880312500000e+02 1.102330843773e+00-7.634960883910e-09
   -2.460816788611e-10 1.000000000000e+00 2.062000000000e+03 0.000000000000e+00
    2.400000000000e+00 0.000000000000e+00-1.257285475731e-08 4.500000000000e+01
    5.616000000000e+05 4.000000000000e+00
29 19  7 20 14  0  0.0 1.465561799705e-04-9.777068044059e-12 0.000000000000e+00
    3.900000000000e+01 8.984375000000e+01 4.094456264824e-09 2.531137719863e+00
    4.751607775688e-06 1.218010904267e-03 6.260350346565e-06 5.153726514816e+03
    5.688000000000e+05 8.568167686462e-08 1.436728419494e+00-1.173466444016e-07
    9.854826760062e-01 2.682812500000e+02 1.848839673628e+00-7.966403261244e-09
    2.046513816944e-10 1.000000000000e+00 2.062000000000e+03 0.000000000000e+00
    2.400000000000e+00 0.000000000000e+00-9.778887033463e-09 3.900000000000e+01
    5.616000000000e+05 4.000000000000e+00
19 19  7 20 14  0  0.0-2.917218953371e-04 4.888534022029e-12 0.000000000000e+00
    8.600000000000e+01 1.009062500000e+02 4.130529195978e-09-1.438607493879e+00
    5.455687642097e-06 9.615720948204e-03 5.817040801048e-06 5.153644847870e+03
    5.688000000000e+05 2.421438694000e-08 1.471665795416e+00 2.272427082062e-07
    9.818681506810e-01 2.803437500000e+02 1.458103729976e+00-7.988189883030e-09
    2.535819912792e-10 1.000000000000e+00 2.062000000000e+03 0.000000000000e+00
    3.400000000000e+00 0.000000000000e+00-1.536682248116e-08 8.600000000000e+01
    5.616000000000e+05 4.000000000000e+00
26 19  7 20 14  0  0.0 2.558291889727e-04 9.208633855451e-12 0.000000000000e+00
    6.200000000000e+01 1.059375000000e+01 4.691981154134e-09-2.297868509595e+00
    3.967434167862e-07 3.753837430850e-03 1.007504761219e-05 5.153640930176e+03
    5.688000000000e+05-5.960464477539e-08 2.975575651184e-01-9.126961231232e-08
    9.511797822844e-01 1.832812500000e+02 1.532062287858e-01-7.990689987169e-09
   -2.503675716715e-10 1.000000000000e+00 2.062000000000e+03 0.000000000000e+00
    2.400000000000e+00 0.000000000000e+00 7.450580596924e-09 6.200000000000e+01
    5.616000000000e+05 4.000000000000e+00
20 19  7 20 14  0  0.0 5.260533653200e-04 2.273736754432e-13 0.000000000000e+00
    5.500000000000e+01-9.237500000000e+01 4.917704842146e-09-4.301605735488e-01
   -4.792585968971e-06 4.608961171471e-03 8.460134267807e-06 5.153701606750e+03
    5.688000000000e+05-7.823109626770e-08-2.939967290330e+00-2.104789018631e-07
    9.315733211624e-01 2.057812500000e+02 2.393819281736e+00-8.242129032043e-09
   -2.003654888840e-10 1.000000000000e+00 2.062000000000e+03 0.000000000000e+00
    2.400000000000e+00 0.000000000000e+00-8.847564458847e-09 5.500000000000e+01
    5.616000000000e+05 4.000000000000e+00
 5 19  7 20 13 59 44.0-7.217749953270e-08-2.273736754432e-13 0.000000000000e+00
    1.700000000000e+01-1.024062500000e+02 4.499473135402e-09 2.900737914646e+00
   -5.314126610756e-06 5.773417185992e-03 9.629875421524e-06 5.153737272263e+03
    5.687840000000e+05 5.215406417847e-08-2.844063431046e+00-4.656612873077e-08
    9.505882440445e-01 1.878750000000e+02 7.387055253417e-01-7.969974838586e-09
   -1.475061442230e-10 1.000000000000e+00 2.062000000000e+03 0.000000000000e+00
    2.400000000000e+00 0.000000000000e+00-1.117587089539e-08 1.700000000000e+01
    5.674500000000e+05 4.000000000000e+00
 5 19  7 20 15 59 44.0-7.404014468193e-08-2.273736754432e-13 0.000000000000e+00
    1.800000000000e+01-9.668750000000e+01 4.476257882680e-09-2.332277722352e+00
   -4.993751645088e-06 5.772635573521e-03 9.702518582344e-06 5.153738742828e+03
    5.759840000000e+05 5.029141902924e-08-2.844120736473e+00-2.607703208923e-08
    9.505871819660e-01 1.860000000000e+02 7.386771476568e-01-7.961760210699e-09
   -1.489347751598e-10 1.000000000000e+00 2.062000000000e+03 0.000000000000e+00
    2.400000000000e+00 0.000000000000e+00-1.117587089539e-08 1.800000000000e+01
    5.688000000000e+05 4.000000000000e+00
 2 19  7 20 16  0  0.0-2.644755877554e-04-8.526512829121e-12 0.000000000000e+00
    7.900000000000e+01-2.912500000000e+01 5.058782147153e-09 1.274843138082e+00
   -1.886859536171e-06 1.893798552919e-02 2.589076757431e-06 5.153747903824e+03
    5.760000000000e+05-3.725290298462e-07 2.354972573237e+00-3.334134817123e-07
    9.553800468423e-01 3.329062500000e+02-1.728566519128e+00-8.712505767979e-09
   -1.317912039184e-10 1.000000000000e+00 2.062000000000e+03 0.000000000000e+00
    2.400000000000e+00 0.000000000000e+00-2.048909664154e-08 7.900000000000e+01
    5.688000000000e+05 4.000000000000e+00
 1 19  7 20 16  0  0.0-7.268553599715e-05-1.068656274583e-11 0.000000000000e+00
    7.700000000000e+01-3.121875000000e+01 4.545546483114e-09 1.001649777225e+00
   -1.424923539162e-06 9.051872184500e-03 2.978369593620e-06 5.153650358200e+03
    5.760000000000e+05-1.862645149231e-09 2.424835525184e+00 1.415610313416e-07
    9.763276527428e-01 3.302500000000e+02 7.397227127630e-01-8.391063807203e-09
   -2.267951612145e-10 1.000000000000e+00 2.062000000000e+03 0.000000000000e+00
    2.400000000000e+00 0.000000000000e+00 5.587935447693e-09 7.700000000000e+01
    5.688000000000e+05 4.000000000000e+00
 3 19  7 20 16  0  0.0 1.799911260605e-04-2.273736754432e-12 0.000000000000e+00
    5.200000000000e+01-7.834375000000e+01 4.296964700113e-09-8.784821603081e-03
   -4.151836037636e-06 2.350216731429e-03 8.946284651756e-06 5.153754209518e+03
    5.760000000000e+05-3.725290298462e-09-2.816537130820e+00 1.490116119385e-08
    9.637028086959e-01 2.057187500000e+02 6.523913383750e-01-7.959974422028e-09
   -1.846505485794e-10 1.000000000000e+00 2.062000000000e+03 0.000000000000e+00
    2.400000000000e+00 0.000000000000e+00 1.862645149231e-09 5.200000000000e+01
    5.688000000000e+05 4.000000000000e+00
 9 19  7 20 16  0  0.0 3.666304983199e-04-8.412825991400e-12 0.000000000000e+00
    1.200000000000e+01 2.481250000000e+01 4.606263297927e-09-2.728269373290e+00
    1.316890120506e-06 1.219063182361e-03 8.847564458847e-06 5.153633962631e+03
    5.760000000000e+05-1.490116119385e-08-1.784706010660e+00-8.754432201385e-08
    9.521974129700e-01 2.065000000000e+02 1.728635482549e+00-7.958188633357e-09
    3.371569010811e-10 1.000000000000e+00 2.062000000000e+03 0.000000000000e+00
    2.400000000000e+00 0.000000000000e+00 1.396983861923e-09 1.200000000000e+01
    5.688000000000e+05 4.000000000000e+00
 8 19  7 20 16  0  0.0-1.519266515970e-04-1.477928890381e-12 0.000000000000e+00
    3.800000000000e+01 8.671875000000e+01 4.368396246952e-09-2.963745176043e+00
    4.608184099197e-06 4.392271279357e-03 6.761401891708e-06 5.153773199081e+03
    5.760000000000e+05-8.381903171539e-08 1.357137650413e+00 5.587935447693e-09
    9.701345646044e-01 2.552812500000e+02-2.028346815644e-01-7.929258856887e-09
    2.735828243942e-10 1.000000000000e+00 2.062000000000e+03 0.000000000000e+00
    2.400000000000e+00 0.000000000000e+00 5.122274160385e-09 3.800000000000e+01
    5.688000000000e+05 4.000000000000e+00
 7 19  7 20 16  0  0.0-6.826315075159e-05-7.730704965070e-12 0.000000000000e+00
    9.300000000000e+01-1.562500000000e+00 4.945920303147e-09 3.895824415239e-01
    9.313225746155e-09 1.304050826002e-02 5.261972546577e-06 5.153733882904e+03
    5.760000000000e+05-5.960464477539e-08-7.086117643871e-01 2.644956111908e-07
    9.549333418810e-01 2.765625000000e+02-2.447010212140e+00-8.394992542279e-09
   -1.417916204758e-10 1.000000000000e+00 2.062000000000e+03 0.000000000000e+00
    2.400000000000e+00 0.000000000000e+00-1.117587089539e-08 9.300000000000e+01
    5.688000000000e+05 4.000000000000e+00
10 19  7 20 16  0  0.0-2.279039472342e-05-1.318767317571e-11 0.000000000000e+00
    6.000000000000e+01-9.456250000000e+01 4.195174745867e-09-1.024375492757e+00
   -5.036592483521e-06 4.675358650275e-03 9.566545486450e-06 5.153670295715e+03
    5.760000000000e+05 1.788139343262e-07-2.819740606886e+00-8.568167686462e-08
    9.637136518447e-01 1.999687500000e+02-2.710130185355e+00-7.862827518327e-09
   -2.467959943295e-10 1.000000000000e+00 2.062000000000e+03 0.000000000000e+00
    2.400000000000e+00 0.000000000000e+00 1.862645149231e-09 6.000000000000e+01
    5.688000000000e+05 4.000000000000e+00
